ID,Address,Suburb,Price,Type,Date,Rooms,Bathroom,Car,LandSize,Age,Latitude,Longitude,train_station_id,distance_to_train_station,travel_min_to_CBD,over_priced?,crime_A_average,crime_B_average,crime_C_average,closest_primary_school,distance_to_closest_primary,primary_school_ranking,closest_secondary_school,distance_to_closestsecondary,secondary_school_ranking
ID863679200,3/24 Green St,IVANHOE,750000.0,t,16/04/2016,3,1.0,1.0,110.0,29.0,-37.765,145.0407,19933.0,600.9,27.15,False,555.667,1129.0,160.667,Ivanhoe Primary School,266.29999999999995,100,Ivanhoe Girls' Grammar School,530.6999999999999,49
ID543266509,1/19 Warrina St,CHADSTONE,965000.0,t,17/09/2016,4,3.0,2.0,273.0,7.0,-37.8742,145.105,19840.0,626.5,34.11,False,1540.667,6062.333,477.667,St Mary Magdalen's School,704.9,not ranked,Salesian College,1037.5,153
ID825047629,14/129 Kambrook Rd,CAULFIELD NORTH,655000.0,u,13/05/2017,2,1.0,1.0,0.0,54.0,-37.8806,145.0346,22248.0,779.1,20.43,True,1593.333,6648.333,530.0,Malvern Primary School,1058.5,122,Glen Eira College,641.8000000000001,215
ID343275763,5/273 Bluff Rd,SANDRINGHAM,770000.0,u,22/07/2017,2,1.0,1.0,208.0,49.0,-37.95265,145.02045,19948.0,1418.4,36.33,False,101.667,251.333,18.667,Sandringham East Primary School,473.5,295,Sandringham College,505.6,304
ID230312855,5/9 Sandown Rd,ASCOT VALE,900000.0,t,13/05/2017,4,3.0,2.0,0.0,8.0,-37.7831,144.9209,20040.0,852.4,11.27,False,2494.667,11307.0,1410.0,Ascot Vale West Primary School,901.2,not ranked,Kensington Community High School,675.2,not ranked
ID782908322,42 West St,HADFIELD,725000.0,h,24/09/2016,3,2.0,4.0,560.0,49.0,-37.7136,144.9374,20033.0,1479.9,26.76,False,1683.667,8938.667,509.333,Westbreen Primary School,344.1,321,Pascoe Vale Girls Secondary College,471.9,not ranked
ID504864495,52 Parramatta Rd,WERRIBEE,490500.0,h,3/09/2017,4,2.0,2.0,586.0,18.0,-37.88639000000001,144.6555,19921.0,1527.7,35.58,False,98.667,190.667,19.0,Westgrove Primary School,946.6999999999999,not ranked,Wyndham Central Secondary College,317.90000000000003,not ranked
ID974589299,4/93 Harding St,COBURG,590000.0,t,17/09/2016,3,2.0,2.0,0.0,6.0,-37.7458,144.9751,19965.0,1104.6,22.25,False,1071.333,5783.667,419.667,St Bernard's School,277.4,not ranked,Coburg High School,602.7,79
ID535013380,13 Franklin St,MOORABBIN,725000.0,h,22/05/2016,3,2.0,1.0,374.0,69.0,-37.939,145.0533,19872.0,1451.6,39.15,False,71.0,261.0,20.0,St Catherine's School,131.5,117,Bentleigh Secondary College,1416.1,230
ID708322805,9 Kelverne St,RESERVOIR,685000.0,h,24/06/2017,3,1.0,3.0,494.0,59.0,-37.71477,144.98235,19962.0,1920.2,28.27,False,885.0,1901.0,227.667,Fawkner Primary School,670.6999999999999,not ranked,Darul Ulum College of Victoria,1421.6,261
ID834419691,69 Gloucester Rd,ASHBURTON,1555000.0,h,16/09/2017,3,1.0,4.0,649.0,69.0,-37.87,145.08803,19839.0,541.9,31.0,False,1672.667,10063.667,646.333,St Michael's School,815.3000000000001,155,Ashwood High School,1476.0,241
ID624910104,2/19 Bruce St,TOORAK,1210000.0,t,19/11/2016,2,2.0,2.0,101.0,119.0,-37.8367,145.0076,19947.0,1000.9,16.5,False,584.333,2731.667,211.667,Toorak Primary School,954.2,83,Melbourne High School,1080.2,2
ID134737709,171 North Rd,GARDENVALE,1880000.0,h,27/05/2017,5,2.0,2.0,538.0,129.0,-37.89989,145.00883000000005,19953.0,542.4,25.33,False,97.667,233.333,26.333,Gardenvale Primary School,762.3,138,Leibler Yavneh College,805.0,28
ID634028415,6 Martin St,THORNBURY,972000.0,h,26/07/2016,2,1.0,0.0,229.0,99.0,-37.7611,145.0009,20015.0,475.4,24.22,True,2403.667,5212.333,586.667,St Mary's School,478.9,159,Santa Maria College,1039.7,137
ID692013456,36 Tyrone St,SOUTH YARRA,1540000.0,h,28/05/2016,3,2.0,1.0,149.0,16.0,-37.8448,144.9882,19958.0,545.1,15.67,False,1100.667,3636.333,457.333,South Yarra Primary School,445.79999999999995,44,Wesley College,696.2,98
ID869789607,5/33 Gnarwyn Rd,CARNEGIE,632500.0,u,28/05/2016,2,1.0,1.0,99.0,54.0,-37.8946,145.0588,19919.0,898.6,25.24,False,3703.667,18944.0,2039.333,Carnegie Primary School,571.9,77,Kilvington Grammar School,1638.8,37
ID386449126,6 Forest St,COLLINGWOOD,981000.0,h,17/09/2016,2,1.0,0.0,188.0,119.0,-37.7964,144.9923,19975.0,360.6,14.35,False,1071.333,5783.667,419.667,Clifton Hill Primary School,528.9000000000001,144,Collingwood College,750.0,359
ID753690459,310/71 Henry St,KENSINGTON,380000.0,u,29/04/2017,1,1.0,1.0,2592.0,44.0,-37.7961,144.9261,20026.0,385.9,6.31,False,288.0,712.0,75.667,Holy Rosary School,242.60000000000002,437,Kensington Community High School,913.0,not ranked
ID529610777,58 Station St,ASPENDALE,780000.0,h,9/09/2017,3,1.0,2.0,292.0,64.0,-38.01908,145.09702,19862.0,1011.6,53.33,False,85.667,161.333,20.333,Aspendale Primary School,274.2,188,Mordialloc College,851.1,164
ID427505042,7 Rosina St,BENTLEIGH,1920000.0,h,20/05/2017,4,2.0,2.0,650.0,23.0,-37.9323,145.0445,19937.0,718.8,37.5,False,959.0,4476.667,324.0,Tucker Road Bentleigh Primary School,397.1,380,Our Lady of the Sacred Heart College,834.4,not ranked
ID175528362,24 Henrietta Av,OFFICER,559000.0,h,15/07/2017,4,2.0,2.0,480.0,4.0,-38.07054,145.42553999999996,45794.0,1076.9,71.71,False,121.0,242.0,42.333,Bridgewood Primary School,538.4,not ranked,Officer Secondary College,1287.6000000000001,not ranked
ID525566391,2/50 Gibdon St,BURNLEY,1100000.0,h,17/06/2017,3,2.0,2.0,1212.0,9.0,-37.82982,145.01038,19906.0,353.5,12.51,False,101.333,253.667,33.0,Richmond Primary School,994.5,260,Melbourne Girls College,885.1999999999999,not ranked
ID455867276,61 Mooltan St,TRAVANCORE,1257000.0,h,13/08/2016,3,2.0,1.0,337.0,89.0,-37.7813,144.9371,19971.0,786.1,10.2,False,922.667,5201.0,296.667,Flemington Primary School,288.1,341,Mount Alexander 7-12 College,353.1,not ranked
ID182276444,35 Frater St,KEW EAST,1770000.0,h,27/06/2016,3,1.0,1.0,698.0,7.0,-37.7902,145.061,19932.0,2608.4,26.43,False,271.667,771.667,74.0,St Bede's School,946.3000000000001,442,Kew High School,630.1999999999999,124
ID384174279,44 Garton St,PORT MELBOURNE,2455000.0,t,26/08/2017,4,3.0,2.0,123.0,9.0,-37.83349000000001,144.9484,20043.0,1725.6,0.0,False,705.333,5479.667,335.0,Galilee Regional Catholic Primary School,637.1,208,Albert Park College,1261.4,131
ID820599433,1/10 Wilton Gr,ELWOOD,1350000.0,t,3/09/2016,3,2.0,2.0,1170.0,89.0,-37.8831,144.9801,19955.0,1552.4,21.33,True,1566.667,8895.333,491.0,St Columba's School,110.0,343,Elwood College,456.7,175
ID834726235,14 Sackville St,HEIDELBERG HEIGHTS,785000.0,h,10/12/2016,3,1.0,0.0,592.0,69.0,-37.7477,145.0481,19935.0,1521.7,30.94,False,1150.667,7827.0,922.333,St Pius X School,181.2,not ranked,East Preston Islamic College,1853.5,491
ID851155887,6 Waller Ct,ASCOT VALE,786000.0,h,26/07/2016,3,2.0,1.0,576.0,79.0,-37.7816,144.9217,20039.0,700.7,13.27,False,2489.667,11817.333,1268.667,Ascot Vale Primary School,898.5999999999999,249,Kensington Community High School,780.6999999999999,not ranked
ID700823082,2/13 Alexander St,COLLINGWOOD,366000.0,u,16/07/2016,1,1.0,1.0,0.0,49.0,-37.796,144.9911,19975.0,458.8,14.35,False,1071.333,5783.667,419.667,Clifton Hill Primary School,442.2,144,Collingwood College,779.4,359
ID824502012,194 Miller St,PRESTON,950000.0,h,27/11/2016,4,2.0,1.0,243.0,14.0,-37.7506,144.9847,20014.0,1317.6,26.12,False,659.0,5219.333,338.333,Bell Primary School,612.6,not ranked,St John's College Preston,1291.1999999999998,not ranked
ID544263872,1/22 Nonna St,OAKLEIGH EAST,875000.0,h,8/07/2017,3,2.0,2.0,295.0,13.0,-37.90088,145.11692,19916.0,1705.2,31.28,False,938.333,6892.667,553.333,Amsleigh Park Primary School,717.4000000000001,not ranked,John Monash Science School,1809.3,59
ID753280585,32 Agg St,NEWPORT,1130000.0,h,23/09/2017,2,1.0,2.0,343.0,39.0,-37.84332,144.87718,19994.0,568.3,16.41,False,84.333,293.333,23.0,Sacred Heart School,521.2,66,Bayside P-12 College,1749.6000000000001,243
ID234502887,10A Coniston Av,AIRPORT WEST,780000.0,t,29/07/2017,3,2.0,1.0,195.0,14.0,-37.7325,144.88272,20036.0,3741.7,19.76,False,1214.667,5603.667,375.333,Niddrie Primary School,420.0,445,Penleigh & Essendon Grammar School,1090.9,not ranked
ID597518207,27 Wellington St,WEST FOOTSCRAY,915000.0,h,22/07/2017,3,1.0,2.0,447.0,109.0,-37.792,144.86856,20022.0,946.3,15.95,False,298.0,735.0,154.0,Footscray West Primary School,670.8,399,Caroline Chisholm Catholic College,1762.0,not ranked
ID630218477,49 Leopold St,SOUTH YARRA,2600000.0,h,18/03/2017,4,2.0,2.0,141.0,139.0,-37.8366,144.9827,19959.0,872.3,13.09,False,1245.0,3886.0,447.667,Christ Church Grammar School,374.0,14,Melbourne Girls Grammar,576.8,21
ID825923726,243 Graham St,PORT MELBOURNE,1101000.0,h,10/12/2016,2,1.0,0.0,152.0,109.0,-37.8393,144.9386,22180.0,2631.4,0.0,False,659.0,5219.333,338.333,Port Melbourne Primary School,611.0,325,Albert Park College,983.4000000000001,131
ID502667318,1/91 Truganini Rd,CARNEGIE,620000.0,u,3/06/2017,2,1.0,2.0,158.0,49.0,-37.89267,145.05473999999995,19920.0,790.9,23.04,False,3767.667,18925.0,2042.333,Carnegie Primary School,215.9,77,Kilvington Grammar School,1411.6,37
ID737235741,103/115 Tennyson St,ELWOOD,685000.0,u,7/05/2016,2,1.0,1.0,0.0,54.0,-37.8818,144.9918,19955.0,722.2,21.33,True,1566.667,8895.333,491.0,Elwood Primary School,303.70000000000005,309,Elwood College,582.5,175
ID319570754,605/4 Bik La,FITZROY NORTH,720000.0,u,10/12/2016,2,2.0,1.0,4296.0,8.0,-37.7846,144.9785,20019.0,1233.1,19.23,False,1923.667,8979.333,620.333,Fitzroy North Primary School,499.2,103,Fitzroy High School,790.4,248
ID749236426,105 Ivanhoe Pde,IVANHOE,1758000.0,h,25/02/2017,4,2.0,2.0,650.0,39.0,-37.7607,145.0456,19934.0,801.4,29.81,False,591.667,1189.667,177.333,Ivanhoe Girls' Grammar School,518.5,38,Ivanhoe Girls' Grammar School,518.5,49
ID857049581,17 Kooyong Rd,ARMADALE,2000000.0,h,28/05/2016,4,3.0,4.0,544.0,21.0,-37.8611,145.0195,19945.0,517.6,19.52,False,2489.667,11817.333,1268.667,The King David School,853.6,140,The King David School,853.6,27
